start=new Date('2022-11-06T00:00:00.000Z').valueOf();
sats=[{"CENTER_NAME":"EARTH","SEMIMAJOR_AXIS":"6925.406","RA_OF_ASC_NODE":"43.4785","MEAN_ELEMENT_THEORY":"SGP4","MEAN_ANOMALY":"302.3716","RCS_SIZE":"LARGE","TIME_SYSTEM":"UTC","MEAN_MOTION":"15.06381214","GP_ID":"217015395","REV_AT_EPOCH":"11272","MEAN_MOTION_DDOT":"0.0000000000000","ECCENTRICITY":"0.00013400","BSTAR":"-0.00050760000000","TLE_LINE2":"2 46758  53.0563  43.4785 0001340  57.7403 302.3716 15.06381214112725","OBJECT_NAME":"STARLINK-1928","ARG_OF_PERICENTER":"57.7403","PERIAPSIS":"546.343","REF_FRAME":"TEME","COUNTRY_CODE":"US","FILE":"3646512","LAUNCH_DATE":"2020-10-24","OBJECT_ID":"2020-074V","OBJECT_TYPE":"PAYLOAD","TLE_LINE1":"1 46758U 20074V   22309.67193737 -.00007830  00000-0 -50760-3 0  9993","SITE":"AFETR","APOAPSIS":"548.199","CLASSIFICATION_TYPE":"U","PERIOD":"95.593","MEAN_MOTION_DOT":"-0.00007830","EPHEMERIS_TYPE":"0","ELEMENT_SET_NO":"999","INCLINATION":"53.0563","NORAD_CAT_ID":"46758","DECAY_DATE":null,"EPOCH":"2022-11-05T16:07:35.388768"},{"OBJECT_TYPE":"PAYLOAD","OBJECT_ID":"2020-074W","LAUNCH_DATE":"2020-10-24","FILE":"3646512","REF_FRAME":"TEME","COUNTRY_CODE":"US","PERIAPSIS":"546.504","ARG_OF_PERICENTER":"85.0209","TLE_LINE2":"2 46759  53.0559  53.5254 0001079  85.0209 275.0903 15.06387769112579","BSTAR":"-0.00019300000000","OBJECT_NAME":"STARLINK-1833","ECCENTRICITY":"0.00010790","REV_AT_EPOCH":"11257","MEAN_MOTION_DDOT":"0.0000000000000","GP_ID":"217016146","MEAN_MOTION":"15.06387769","RCS_SIZE":"LARGE","TIME_SYSTEM":"UTC","MEAN_ELEMENT_THEORY":"SGP4","RA_OF_ASC_NODE":"53.5254","MEAN_ANOMALY":"275.0903","CENTER_NAME":"EARTH","SEMIMAJOR_AXIS":"6925.386","EPOCH":"2022-11-05T16:00:57.902112","NORAD_CAT_ID":"46759","DECAY_DATE":null,"INCLINATION":"53.0559","ELEMENT_SET_NO":"999","EPHEMERIS_TYPE":"0","MEAN_MOTION_DOT":"-0.00003154","PERIOD":"95.593","CLASSIFICATION_TYPE":"U","APOAPSIS":"547.998","TLE_LINE1":"1 46759U 20074W   22309.66733683 -.00003154  00000-0 -19300-3 0  9993","SITE":"AFETR"},{"EPOCH":"2022-11-05T16:16:53.578560","DECAY_DATE":null,"NORAD_CAT_ID":"46760","INCLINATION":"53.0556","ELEMENT_SET_NO":"999","EPHEMERIS_TYPE":"0","MEAN_MOTION_DOT":"-0.00003127","PERIOD":"95.593","CLASSIFICATION_TYPE":"U","TLE_LINE1":"1 46760U 20074X   22309.67839790 -.00003127  00000-0 -19121-3 0  9993","SITE":"AFETR","APOAPSIS":"548.029","OBJECT_TYPE":"PAYLOAD","OBJECT_ID":"2020-074X","LAUNCH_DATE":"2020-10-24","FILE":"3646512","COUNTRY_CODE":"US","REF_FRAME":"TEME","PERIAPSIS":"546.493","ARG_OF_PERICENTER":"94.4052","OBJECT_NAME":"STARLINK-1896","BSTAR":"-0.00019121000000","TLE_LINE2":"2 46760  53.0556  53.4733 0001109  94.4052 265.7064 15.06384608112587","ECCENTRICITY":"0.00011090","MEAN_MOTION_DDOT":"0.0000000000000","REV_AT_EPOCH":"11258","MEAN_MOTION":"15.06384608","GP_ID":"217015898","RCS_SIZE":"LARGE","TIME_SYSTEM":"UTC","MEAN_ANOMALY":"265.7064","MEAN_ELEMENT_THEORY":"SGP4","RA_OF_ASC_NODE":"53.4733","SEMIMAJOR_AXIS":"6925.396","CENTER_NAME":"EARTH"},{"CLASSIFICATION_TYPE":"U","TLE_LINE1":"1 46763U 20074AA  22309.58057232 -.00053504  00000-0 -32621-3 0  9993","SITE":"AFETR","APOAPSIS":"342.199","DECAY_DATE":null,"NORAD_CAT_ID":"46763","EPOCH":"2022-11-05T13:56:01.448448","INCLINATION":"53.0474","MEAN_MOTION_DOT":"-0.00053504","ELEMENT_SET_NO":"999","EPHEMERIS_TYPE":"0","PERIOD":"91.334","OBJECT_NAME":"STARLINK-1902","TLE_LINE2":"2 46763  53.0474 327.7577 0003272   4.6268 355.4781 15.76629351113787","BSTAR":"-0.00032621000000","ARG_OF_PERICENTER":"4.6268","MEAN_MOTION_DDOT":"0.0000000000000","REV_AT_EPOCH":"11378","ECCENTRICITY":"0.00032720","TIME_SYSTEM":"UTC","RCS_SIZE":"LARGE","MEAN_MOTION":"15.76629351","GP_ID":"217014646","SEMIMAJOR_AXIS":"6718.136","CENTER_NAME":"EARTH","MEAN_ANOMALY":"355.4781","RA_OF_ASC_NODE":"327.7577","MEAN_ELEMENT_THEORY":"SGP4","OBJECT_TYPE":"PAYLOAD","OBJECT_ID":"2020-074AA","FILE":"3646512","LAUNCH_DATE":"2020-10-24","PERIAPSIS":"337.802","COUNTRY_CODE":"US","REF_FRAME":"TEME"},{"CLASSIFICATION_TYPE":"U","TLE_LINE1":"1 46764U 20074AB  22309.67104057 -.00003847  00000-0 -23975-3 0  9999","SITE":"AFETR","APOAPSIS":"548.581","NORAD_CAT_ID":"46764","DECAY_DATE":null,"EPOCH":"2022-11-05T16:06:17.905248","INCLINATION":"53.0570","MEAN_MOTION_DOT":"-0.00003847","ELEMENT_SET_NO":"999","EPHEMERIS_TYPE":"0","PERIOD":"95.594","TLE_LINE2":"2 46764  53.0570  53.5065 0001819  70.2388 289.8797 15.06364762112587","BSTAR":"-0.00023975000000","OBJECT_NAME":"STARLINK-1903","ARG_OF_PERICENTER":"70.2388","REV_AT_EPOCH":"11258","MEAN_MOTION_DDOT":"0.0000000000000","ECCENTRICITY":"0.00018190","RCS_SIZE":"LARGE","TIME_SYSTEM":"UTC","GP_ID":"217014896","MEAN_MOTION":"15.06364762","CENTER_NAME":"EARTH","SEMIMAJOR_AXIS":"6925.457","RA_OF_ASC_NODE":"53.5065","MEAN_ELEMENT_THEORY":"SGP4","MEAN_ANOMALY":"289.8797","OBJECT_TYPE":"PAYLOAD","OBJECT_ID":"2020-074AB","FILE":"3646512","LAUNCH_DATE":"2020-10-24","PERIAPSIS":"546.062","REF_FRAME":"TEME","COUNTRY_CODE":"US"},{"CLASSIFICATION_TYPE":"U","SITE":"AFETR","TLE_LINE1":"1 46765U 20074AC  22309.65996394 -.00002530  00000-0 -15114-3 0  9995","APOAPSIS":"547.897","EPOCH":"2022-11-05T15:50:20.884416","NORAD_CAT_ID":"46765","DECAY_DATE":null,"INCLINATION":"53.0554","ELEMENT_SET_NO":"999","EPHEMERIS_TYPE":"0","MEAN_MOTION_DOT":"-0.00002530","PERIOD":"95.593","ARG_OF_PERICENTER":"90.1189","TLE_LINE2":"2 46765  53.0554  53.5311 0000904  90.1189 269.9904 15.06381321112576","BSTAR":"-0.00015114000000","OBJECT_NAME":"STARLINK-1906","ECCENTRICITY":"0.00009040","REV_AT_EPOCH":"11257","MEAN_MOTION_DDOT":"0.0000000000000","MEAN_MOTION":"15.06381321","GP_ID":"217015648","TIME_SYSTEM":"UTC","RCS_SIZE":"LARGE","MEAN_ELEMENT_THEORY":"SGP4","RA_OF_ASC_NODE":"53.5311","MEAN_ANOMALY":"269.9904","CENTER_NAME":"EARTH","SEMIMAJOR_AXIS":"6925.406","OBJECT_TYPE":"PAYLOAD","OBJECT_ID":"2020-074AC","LAUNCH_DATE":"2020-10-24","FILE":"3646512","REF_FRAME":"TEME","COUNTRY_CODE":"US","PERIAPSIS":"546.645"},{"ELEMENT_SET_NO":"999","EPHEMERIS_TYPE":"0","MEAN_MOTION_DOT":"-0.00003301","PERIOD":"95.593","EPOCH":"2022-11-05T18:50:48.988608","DECAY_DATE":null,"NORAD_CAT_ID":"46766","INCLINATION":"53.0562","SITE":"AFETR","TLE_LINE1":"1 46766U 20074AD  22309.78528922 -.00003301  00000-0 -20288-3 0  9993","APOAPSIS":"548.228","CLASSIFICATION_TYPE":"U","LAUNCH_DATE":"2020-10-24","FILE":"3646512","COUNTRY_CODE":"US","REF_FRAME":"TEME","PERIAPSIS":"546.279","OBJECT_TYPE":"PAYLOAD","OBJECT_ID":"2020-074AD","MEAN_MOTION":"15.06386954","GP_ID":"217016396","TIME_SYSTEM":"UTC","RCS_SIZE":"LARGE","MEAN_ANOMALY":"277.1001","MEAN_ELEMENT_THEORY":"SGP4","RA_OF_ASC_NODE":"52.9959","SEMIMAJOR_AXIS":"6925.389","CENTER_NAME":"EARTH","ARG_OF_PERICENTER":"83.0148","OBJECT_NAME":"STARLINK-1916","TLE_LINE2":"2 46766  53.0562  52.9959 0001407  83.0148 277.1001 15.06386954112602","BSTAR":"-0.00020288000000","ECCENTRICITY":"0.00014070","MEAN_MOTION_DDOT":"0.0000000000000","REV_AT_EPOCH":"11260"},{"INCLINATION":"53.0542","NORAD_CAT_ID":"46767","DECAY_DATE":null,"EPOCH":"2022-11-05T10:00:01.373184","PERIOD":"95.593","MEAN_MOTION_DOT":"-0.00002405","EPHEMERIS_TYPE":"0","ELEMENT_SET_NO":"999","CLASSIFICATION_TYPE":"U","TLE_LINE1":"1 46767U 20074AE  22309.41668256 -.00002405  00000-0 -14264-3 0  9990","APOAPSIS":"548.123","SITE":"AFETR","OBJECT_ID":"2020-074AE","OBJECT_TYPE":"PAYLOAD","PERIAPSIS":"546.350","REF_FRAME":"TEME","COUNTRY_CODE":"US","FILE":"3646019","LAUNCH_DATE":"2020-10-24","REV_AT_EPOCH":"11255","MEAN_MOTION_DDOT":"0.0000000000000","ECCENTRICITY":"0.00012800","BSTAR":"-0.00014264000000","TLE_LINE2":"2 46767  53.0542  54.6411 0001280  94.2207 265.8928 15.06392573112552","OBJECT_NAME":"STARLINK-1917","ARG_OF_PERICENTER":"94.2207","CENTER_NAME":"EARTH","SEMIMAJOR_AXIS":"6925.371","MEAN_ELEMENT_THEORY":"SGP4","RA_OF_ASC_NODE":"54.6411","MEAN_ANOMALY":"265.8928","RCS_SIZE":"LARGE","TIME_SYSTEM":"UTC","MEAN_MOTION":"15.06392573","GP_ID":"216985454"},{"TLE_LINE1":"1 46768U 20074AF  22309.68577016 -.00002857  00000-0 -17308-3 0  9996","APOAPSIS":"548.108","SITE":"AFETR","CLASSIFICATION_TYPE":"U","PERIOD":"95.593","EPHEMERIS_TYPE":"0","ELEMENT_SET_NO":"999","MEAN_MOTION_DOT":"-0.00002857","INCLINATION":"53.0562","EPOCH":"2022-11-05T16:27:30.541824","DECAY_DATE":null,"NORAD_CAT_ID":"46768","MEAN_ANOMALY":"295.2881","MEAN_ELEMENT_THEORY":"SGP4","RA_OF_ASC_NODE":"53.4279","SEMIMAJOR_AXIS":"6925.399","CENTER_NAME":"EARTH","GP_ID":"217015396","MEAN_MOTION":"15.06383682","RCS_SIZE":"LARGE","TIME_SYSTEM":"UTC","ECCENTRICITY":"0.00012190","MEAN_MOTION_DDOT":"0.0000000000000","REV_AT_EPOCH":"11258","ARG_OF_PERICENTER":"64.8234","OBJECT_NAME":"STARLINK-1918","BSTAR":"-0.00017308000000","TLE_LINE2":"2 46768  53.0562  53.4279 0001219  64.8234 295.2881 15.06383682112588","COUNTRY_CODE":"US","REF_FRAME":"TEME","PERIAPSIS":"546.419","LAUNCH_DATE":"2020-10-24","FILE":"3646512","OBJECT_ID":"2020-074AF","OBJECT_TYPE":"PAYLOAD"},{"LAUNCH_DATE":"2020-10-24","FILE":"3646512","REF_FRAME":"TEME","COUNTRY_CODE":"US","PERIAPSIS":"546.210","OBJECT_TYPE":"PAYLOAD","OBJECT_ID":"2020-074AH","MEAN_MOTION":"15.06385367","GP_ID":"217016147","TIME_SYSTEM":"UTC","RCS_SIZE":"LARGE","MEAN_ELEMENT_THEORY":"SGP4","RA_OF_ASC_NODE":"53.9575","MEAN_ANOMALY":"256.7566","CENTER_NAME":"EARTH","SEMIMAJOR_AXIS":"6925.393","ARG_OF_PERICENTER":"103.3592","TLE_LINE2":"2 46770  53.0569  53.9575 0001514 103.3592 256.7566 15.06385367112579","BSTAR":"-0.00011138000000","OBJECT_NAME":"STARLINK-1932","ECCENTRICITY":"0.00015140","REV_AT_EPOCH":"11257","MEAN_MOTION_DDOT":"0.0000000000000","ELEMENT_SET_NO":"999","EPHEMERIS_TYPE":"0","MEAN_MOTION_DOT":"-0.00001939","PERIOD":"95.593","EPOCH":"2022-11-05T16:38:13.053696","NORAD_CAT_ID":"46770","DECAY_DATE":null,"INCLINATION":"53.0569","SITE":"AFETR","TLE_LINE1":"1 46770U 20074AH  22309.69320664 -.00001939  00000-0 -11138-3 0  9990","APOAPSIS":"548.307","CLASSIFICATION_TYPE":"U"}];
